[{"OBJECT_NAME":"LEMUR-2-AMANDA-SVANTE","OBJECT_ID":"2021-034B","EPOCH":"2026-03-09T18:37:58.823328","MEAN_MOTION":15.28469003,"ECCENTRICITY":0.00027027,"INCLINATION":97.5829,"RA_OF_ASC_NODE":144.8625,"ARG_OF_PERICENTER":205.4721,"MEAN_ANOMALY":154.6385,"EPHEMERIS_TYPE":0,"CLASSIFICATION_TYPE":"U","NORAD_CAT_ID":48269,"ELEMENT_SET_NO":999,"REV_AT_EPOCH":26584,"BSTAR":0.0011134246,"MEAN_MOTION_DOT":0.00030872,"MEAN_MOTION_DDOT":0},{"OBJECT_NAME":"STARLINK-33739","OBJECT_ID":"2025-076D","EPOCH":"2026-03-09T09:49:24.053088","MEAN_MOTION":15.27599048,"ECCENTRICITY":0.00021339,"INCLINATION":43.0046,"RA_OF_ASC_NODE":323.6207,"ARG_OF_PERICENTER":272.8873,"MEAN_ANOMALY":87.1735,"EPHEMERIS_TYPE":0,"CLASSIFICATION_TYPE":"U","NORAD_CAT_ID":63572,"ELEMENT_SET_NO":999,"REV_AT_EPOCH":5178,"BSTAR":0.00078344875,"MEAN_MOTION_DOT":0.00021372,"MEAN_MOTION_DDOT":0}]
