LEMUR-2-AMANDA-SVANTE   
1 48269U 21034B   26068.77637527  .00030872  00000+0  11134-2 0  9996
2 48269  97.5829 144.8625 0002703 205.4721 154.6385 15.28469003265849
STARLINK-33739          
1 63572U 25076D   26068.40930617  .00021372  00000+0  78345-3 0  9999
2 63572  43.0046 323.6207 0002133 272.8873  87.1735 15.27599048 51783
